#cP2017  9  1  0  0  0.00000000      96 ORBIT IGS14 HLM  IGS
## 1964 432000.00000000   900.00000000 57997 0.0000000000000
+   32   G01G02G03G04G05G06G07G08G09G10G11G12G13G14G15G16G17
+        G18G19G20G21G22G23G24G25G26G27G28G29G30G31G32  0  0
+          0  0  0  0  0  0  0  0  0  0  0  0  0  0  0  0  0
+          0  0  0  0  0  0  0  0  0  0  0  0  0  0  0  0  0
+          0  0  0  0  0  0  0  0  0  0  0  0  0  0  0  0  0
++         2  2  2  0  2  2  2  2  2  2  2  2  2  2  2  2  2
++         2  2  2  2  2  3  2  2  2  2  2  2  2  2  2  0  0
++         0  0  0  0  0  0  0  0  0  0  0  0  0  0  0  0  0
++         0  0  0  0  0  0  0  0  0  0  0  0  0  0  0  0  0
++         0  0  0  0  0  0  0  0  0  0  0  0  0  0  0  0  0
%c G  cc GPS ccc cccc cccc cccc cccc ccccc ccccc ccccc ccccc
%c cc cc ccc ccc cccc cccc cccc cccc ccccc ccccc ccccc ccccc
%f  1.2500000  1.025000000  0.00000000000  0.000000000000000
%f  0.0000000  0.000000000  0.00000000000  0.000000000000000
%i    0    0    0    0      0      0      0      0         0
%i    0    0    0    0      0      0      0      0         0
/* FINAL ORBIT COMBINATION FROM WEIGHTED AVERAGE OF:        
/* cod emr esa gfz grg jpl mit ngs sio                      
/* REFERENCED TO IGS TIME (IGST) AND TO WEIGHTED MEAN POLE: 
/* PCV:IGS14_1958 OL/AL:FES2004  NONE     Y  ORB:CMB CLK:CMB
*  2017  9  1 12 45  0.00000000
PG01  13593.629541 -19552.184987  11338.218335     55.546247  4  4     76       
PG02 -15214.549275  -1733.141956 -21172.884904    340.593850  9  5  8  96       
PG03  19393.997937 -13657.394881 -11918.031570    -72.589405  5  6  6  92       
PG04  22639.209337  12446.800851   7103.445760 999999.999999
PG05 -25852.356669   2707.144512  -6058.283432    -31.030865  9  2  5  93       
PG06  -8790.178887 -16678.937920 -18687.492375    393.686000  7  3  7  37       
PG07   5568.220249 -25589.366411   2795.432489    308.281273  7  5  5  60       
PG08  17774.055010  -1558.320730  19755.610889    -71.963675  6  4  4  53       
PG09   -514.923273 -19041.916356 -18529.231085    435.400566  6  3  2  60       
PG10  10004.717730  12650.052874  21150.402719     53.231011  5  5  6  73       
PG11  11631.318560 -15895.256392  17287.454756   -712.884321  7  5  3  46       
PG12 -22793.194977  10369.496476  -8722.016078    374.169294  7  4  4  97       
PG13 -19539.199518  -6439.591107  16670.048934    -90.657407  9  6  4  90       
PG14  18438.454171  19034.150466  -2546.833643    -82.477559  9  6  4  64       
PG15 -16256.524513   5771.828172  20102.176352   -355.351350  8  4  5  84       
PG16  25732.180852    406.626581  -7501.040721     36.924591  9  6  4  81       
PG17 -13701.861479 -21961.637281   6664.753498   -159.905239  8  6  7  95       
PG18  -1051.159554  16891.356117  21029.367947    628.538629  8  6  5  85       
PG19 -17936.544676 -19276.166917  -2572.927188   -488.350841  9  7  7  82       
PG20 -21935.569846  13372.354563   6558.947224    485.185506  6  3  4  73       
PG21   -591.888048  25728.068558   7155.449930   -482.766123  6  3  4  78       
PG22  24146.542277 -10429.265256  -3605.351862   -107.394142  9  7  5  80       
PG23   9202.255084 -12545.123533 -21243.116345   -216.919933  8  6  4  88       
PG24 -14304.248035  17539.731185  13607.626997    -39.329626  7  3  2  67       
PG25 -12628.017799  15488.469450 -17541.994833   -448.853412  4  3  5           
PG26  20427.722364   5979.470407 -15946.157864   -437.716478  5  7  5  39       
PG27  21501.881445   9759.218508  12314.661295    318.894070  5  2  4  67       
PG28  -5214.734970 -14139.662868  22501.496992    642.187088  5  5  3  79       
PG29  -2925.826399  17071.794376 -20152.580391    568.074415  5  6  4  76       
PG30  -2201.501420 -22925.573116  13107.237948    142.859122  5  1  4  40       
PG31  10025.517825  14177.562981 -19915.006067    178.115923  6  5  4  64       
PG32  16496.899681  20469.179617   4025.153049   -493.008398  8  5  3  35       
*  2017  9  1 13  0  0.00000000
PG01  13451.392222 -18084.076617  13698.634821     55.545832  4  4     49       
PG02 -14757.038650  -4229.663111 -21173.434723    340.585997  9  5  8 110       
PG03  20629.285074 -13787.001635  -9429.274911    -72.585818  5  7  5 102       
PG04  23028.982183  13031.598278   4387.252260 999999.999999
PG05 -25137.949175   2210.371711  -8705.285918    -31.029856  8  2  5  88       
PG06  -8186.194085 -18638.109931 -17038.226800    393.688989  6  3  7  31       
PG07   5881.586268 -25648.133644    -81.851184    308.276873  8  5  4  67       
PG08  19287.327537     -4.049449  18352.995528    -71.965101  7  5  4  41       
PG09   1179.870205 -17643.951434 -19839.148814    435.406404  6  4  1  82       
PG10   7677.080919  13388.949129  21651.995167     53.240174  4  4  6  69       
PG11  12203.259528 -13784.113612  18602.910794   -712.886389  7  6  3  39       
PG12 -23633.875126  10384.763938  -5964.920335    374.167883  7  4  5 102       
PG13 -20571.522848  -7936.906259  14673.487880    -90.658064  9  6  4  95       
PG14  18365.826458  19313.604476    296.950690    -82.478601  9  6  3  68       
PG15 -17947.654370   4242.388946  19060.250759   -355.351656  8  4  6  82       
PG16  24800.450339    736.111481 -10152.154229     36.924652  9  6  4  65       
PG17 -12981.269610 -21452.200112   9354.970944   -159.903085  7  5  6  99       
PG18  -3216.558628  17541.935000  20222.450132    628.539465  8  6  5  89       
PG19 -17832.158358 -19497.344245    327.127555   -488.349314  8  7  6  95       
PG20 -22634.763813  13289.051202   3855.223351    485.187300  6  3  4  87       
PG21   -996.339746  26237.795523   4438.617680   -482.763786  5  2  4  65       
PG22  24529.163737 -10187.748580   -841.646606   -107.405277 10  7  4  99       
PG23  11048.217004 -10863.374619 -21327.672024   -216.920222  9  6  4  92       
PG24 -14197.996965  15824.297175  15675.902805    -39.330236  7  3  2  66       
PG25 -14469.327583  15876.511275 -15634.960582   -448.859134  4  3  5  61       
PG26  18638.070805   6705.221525 -17740.359552   -437.707679  5  7  5  75       
PG27  22307.795103  10751.551109   9834.807737    318.898976  5  4  4  52       
PG28  -2830.482699 -14641.671010  22609.956578    642.190065  6  5  3  86       
PG29  -4586.959302  15400.245607 -21163.402902    568.070508  6  6  4  81       
PG30  -1560.345547 -24164.570584  10748.144414    142.857310  5     4  39       
PG31   9310.241682  16289.137530 -18572.464121    178.113844  7  5  4  71       
PG32  15875.884256  20233.479117   6781.421619   -493.014001  7  5  2           
*  2017  9  1 13 15  0.00000000
PG01  13340.209948 -16358.905211  15818.309815     55.545412  4  4     75       
PG02 -14424.499535  -6720.018706 -20792.423378    340.577951  8  5  8  75       
PG03  21582.427529 -13881.732278  -6777.928710    -72.582203  6  7  5 104       
PG04  23196.259545  13417.783922   1597.706345 999999.999999
PG05 -24179.357063   1575.633527 -11204.704724    -31.028334  8  4  4  94       
PG06  -7722.426237 -20426.002084 -15095.289864    393.691970  6  3  7  86       
PG07   6128.493927 -25399.582806  -2957.664905    308.272873  9  6  4  86       
PG08  20745.123552   1355.004841  16636.814750    -71.966308  7  5  4  47       
PG09   3042.795395 -16252.286411 -20808.300136    435.412289  6  5     97       
PG10   5356.540667  14261.040377  21782.263974     53.249245  3  4  5  72       
PG11  12892.439310 -11567.014559  19583.836840   -712.888537  7  6  3  46       
PG12 -24166.911671  10354.729206  -3104.421830    374.166815  8  5  5 101       
PG13 -21516.356829  -9200.516527  12422.269625    -90.658486  9  6  4 101       
PG14  18081.095546  19370.292210   3135.704187    -82.479508  8  6  3  84       
PG15 -19595.704747   2877.227745  17688.907238   -355.352179  9  5  6  91       
PG16  23611.643797   1195.793628 -12633.329239     36.924924  9  7  4  79       
PG17 -12020.444272 -20784.199304  11887.819199   -159.900829  6  5  6 109       
PG18  -5253.149753  18255.246568  19082.894465    628.540680  9  5  5  96       
PG19 -17506.460467 -19489.455054   3221.435792   -488.347722  7  7  6  85       
PG20 -23057.365661  13106.829717   1084.896878    485.188070  7  3  4  70       
PG21  -1339.824110  26460.897429   1646.051562   -482.761335  4  2  5  91       
PG22  24633.553865  -9846.763337   1936.546277   -107.416671 10  6  5  91       
PG23  12961.415640  -9284.003004 -21036.925561   -216.920516  9  6  4 106       
PG24 -14144.059498  13889.226468  17469.938451    -39.330249  7  3  2  62       
PG25 -16071.379048  16285.868827 -13459.125137   -448.864860  4  4  4  54       
PG26  16714.345996   7588.739044 -19230.317873   -437.698946  5  7  6  65       
PG27  22944.115088  11511.847914   7187.285603    318.903885  5  5  4  69       
PG28   -487.333169 -15279.486112  22351.503645    642.192770  7  5  3  88       
PG29  -6406.656200  13758.779681 -21810.574704    568.066351  6  7  3  83       
PG30  -1045.925423 -25163.915222   8202.670154    142.855518  6  2  5  58       
PG31   8740.622860  18269.442705 -16904.498574    178.111751  7  5  4  51       
PG32  15009.079597  19835.399537   9421.462388   -493.019604  7  5  2  55       
EOF
